{
    "links": {
        "self": "http://www.neowsapp.com/rest/v1/neo/3669064?api_key=iIulBulltgU6a56xZRHN4H3l9WmuAYTsLGpBGhQ2"
    },
    "id": "3669064",
    "neo_reference_id": "3669064",
    "name": "(2014 HQ4)",
    "designation": "2014 HQ4",
    "nasa_jpl_url": "http://ssd.jpl.nasa.gov/sbdb.cgi?sstr=3669064",
    "absolute_magnitude_h": 26.2,
    "estimated_diameter": {
        "kilometers": {
            "estimated_diameter_min": 0.0152951935,
            "estimated_diameter_max": 0.0342010925
        },
        "meters": {
            "estimated_diameter_min": 15.2951935344,
            "estimated_diameter_max": 34.201092472
        },
        "miles": {
            "estimated_diameter_min": 0.0095039897,
            "estimated_diameter_max": 0.021251567
        },
        "feet": {
            "estimated_diameter_min": 50.1810827555,
            "estimated_diameter_max": 112.2083122258
        }
    },
    "is_potentially_hazardous_asteroid": false,
    "close_approach_data": [
        {
            "close_approach_date": "2014-04-13",
            "close_approach_date_full": "2014-Apr-13 00:43",
            "epoch_date_close_approach": 1397349780000,
            "relative_velocity": {
                "kilometers_per_second": "15.1678590764",
                "kilometers_per_hour": "54604.2926748924",
                "miles_per_hour": "33928.9839679074"
            },
            "miss_distance": {
                "astronomical": "0.0149461721",
                "lunar": "5.8140609469",
                "kilometers": "2235915.510813427",
                "miles": "1389333.4741702126"
            },
            "orbiting_body": "Earth"
        }
    ],
    "orbital_data": {
        "orbit_id": "10",
        "orbit_determination_date": "2017-04-06 08:41:28",
        "first_observation_date": "2014-04-22",
        "last_observation_date": "2014-04-26",
        "data_arc_in_days": 4,
        "observations_used": 20,
        "orbit_uncertainty": "8",
        "minimum_orbit_intersection": ".0145367",
        "jupiter_tisserand_invariant": "3.915",
        "epoch_osculation": "2456771.5",
        "eccentricity": ".5760140343253193",
        "semi_major_axis": "1.750557544494235",
        "inclination": "6.057154407180333",
        "ascending_node_longitude": "210.7351818407267",
        "orbital_period": "845.9856845376268",
        "perihelion_distance": ".742211830971486",
        "perihelion_argument": "278.7510392091147",
        "aphelion_distance": "2.758903258016983",
        "perihelion_time": "2456713.271027213184",
        "mean_anomaly": "24.77870558141982",
        "mean_motion": ".4255391155900681",
        "equinox": "J2000",
        "orbit_class": {
            "orbit_class_type": "APO",
            "orbit_class_description": "Near-Earth asteroid orbits which cross the Earth’s orbit similar to that of 1862 Apollo",
            "orbit_class_range": "a (semi-major axis) > 1.0 AU; q (perihelion) < 1.017 AU"
        }
    },
    "is_sentry_object": false
}